{
  "type": "FeatureCollection",
  "features": [
    {
      "type": "Feature",
      "properties": {
        "norad_id": 2807,
        "name": "OPS 7218 (TRANSIT 16)",
        "group": "nnss",
        "lat": 27.720723081126337,
        "lon": -6.281641346714316,
        "alt_km": 1057.4889129226558,
        "timestamp": "2025-12-26T21:25:53.278851+00:00",
        "meta_object_name": "OPS 7218 (TRANSIT 16)",
        "meta_object_id": "1967-048A",
        "meta_epoch": "2025-12-26T12:58:24.710592",
        "meta_mean_motion": 13.50725086,
        "meta_eccentricity": 0.00221293,
        "meta_inclination": 89.6735,
        "meta_ra_of_asc_node": 353.5583,
        "meta_arg_of_pericenter": 77.3586,
        "meta_mean_anomaly": 38.0175,
        "meta_ephemeris_type": 0,
        "meta_classification_type": "U",
        "meta_norad_cat_id": 2807,
        "meta_element_set_no": 999,
        "meta_rev_at_epoch": 88462,
        "meta_bstar": 0.00015200412,
        "meta_mean_motion_dot": 1.08e-06,
        "meta_mean_motion_ddot": 0,
        "tle_line1": "1 02807U 67048A   25360.54056378  .00000108  00000+0  15200-3 0  9995",
        "tle_line2": "2 02807  89.6735 353.5583 0022129  77.3586  38.0175 13.50725086884620"
      },
      "geometry": {
        "type": "Point",
        "coordinates": [
          -6.281641346714316,
          27.720723081126337
        ]
      }
    },
    {
      "type": "Feature",
      "properties": {
        "norad_id": 2965,
        "name": "OPS 4947 (TRANSIT 17)",
        "group": "nnss",
        "lat": -51.924915338767256,
        "lon": -155.68457809836252,
        "alt_km": 1039.2925159141187,
        "timestamp": "2025-12-26T21:25:53.278873+00:00",
        "meta_object_name": "OPS 4947 (TRANSIT 17)",
        "meta_object_id": "1967-092A",
        "meta_epoch": "2025-12-26T12:00:14.585184",
        "meta_mean_motion": 13.53457189,
        "meta_eccentricity": 0.00472456,
        "meta_inclination": 89.2485,
        "meta_ra_of_asc_node": 23.3854,
        "meta_arg_of_pericenter": 193.7634,
        "meta_mean_anomaly": 284.9504,
        "meta_ephemeris_type": 0,
        "meta_classification_type": "U",
        "meta_norad_cat_id": 2965,
        "meta_element_set_no": 999,
        "meta_rev_at_epoch": 87283,
        "meta_bstar": 0.00018791726,
        "meta_mean_motion_dot": 1.39e-06,
        "meta_mean_motion_ddot": 0,
        "tle_line1": "1 02965U 67092A   25360.50016881  .00000139  00000+0  18792-3 0  9993",
        "tle_line2": "2 02965  89.2485  23.3854 0047245 193.7634 284.9504 13.53457189872836"
      },
      "geometry": {
        "type": "Point",
        "coordinates": [
          -155.68457809836252,
          -51.924915338767256
        ]
      }
    },
    {
      "type": "Feature",
      "properties": {
        "norad_id": 3133,
        "name": "OPS 7034 (TRANSIT 18)",
        "group": "nnss",
        "lat": -75.09044966815925,
        "lon": -86.21356458668681,
        "alt_km": 1125.0951396575756,
        "timestamp": "2025-12-26T21:25:53.278887+00:00",
        "meta_object_name": "OPS 7034 (TRANSIT 18)",
        "meta_object_id": "1968-012A",
        "meta_epoch": "2025-12-26T11:59:50.647200",
        "meta_mean_motion": 13.51568974,
        "meta_eccentricity": 0.00750778,
        "meta_inclination": 90.0285,
        "meta_ra_of_asc_node": 273.6782,
        "meta_arg_of_pericenter": 129.6479,
        "meta_mean_anomaly": 43.4693,
        "meta_ephemeris_type": 0,
        "meta_classification_type": "U",
        "meta_norad_cat_id": 3133,
        "meta_element_set_no": 999,
        "meta_rev_at_epoch": 57104,
        "meta_bstar": 0.0002102239,
        "meta_mean_motion_dot": 1.49e-06,
        "meta_mean_motion_ddot": 0,
        "tle_line1": "1 03133U 68012A   25360.49989175  .00000149  00000+0  21022-3 0  9998",
        "tle_line2": "2 03133  90.0285 273.6782 0075077 129.6479  43.4693 13.51568974571040"
      },
      "geometry": {
        "type": "Point",
        "coordinates": [
          -86.21356458668681,
          -75.09044966815925
        ]
      }
    },
    {
      "type": "Feature",
      "properties": {
        "norad_id": 4507,
        "name": "NNSS 19 (TRANSIT 19)",
        "group": "nnss",
        "lat": -63.03915951143455,
        "lon": 54.53427805076511,
        "alt_km": 949.4262410654765,
        "timestamp": "2025-12-26T21:25:53.278899+00:00",
        "meta_object_name": "NNSS 19 (TRANSIT 19)",
        "meta_object_id": "1970-067A",
        "meta_epoch": "2025-12-26T14:53:26.025504",
        "meta_mean_motion": 13.51317911,
        "meta_eccentricity": 0.01702285,
        "meta_inclination": 90.0046,
        "meta_ra_of_asc_node": 234.5432,
        "meta_arg_of_pericenter": 252.7431,
        "meta_mean_anomaly": 105.5031,
        "meta_ephemeris_type": 0,
        "meta_classification_type": "U",
        "meta_norad_cat_id": 4507,
        "meta_element_set_no": 999,
        "meta_rev_at_epoch": 72409,
        "meta_bstar": 0.00012342107,
        "meta_mean_motion_dot": 9.5e-07,
        "meta_mean_motion_ddot": 0,
        "tle_line1": "1 04507U 70067A   25360.62044011  .00000095  00000+0  12342-3 0  9998",
        "tle_line2": "2 04507  90.0046 234.5432 0170228 252.7431 105.5031 13.51317911724093"
      },
      "geometry": {
        "type": "Point",
        "coordinates": [
          54.53427805076511,
          -63.03915951143455
        ]
      }
    },
    {
      "type": "Feature",
      "properties": {
        "norad_id": 6909,
        "name": "NNSS 20 (TRANSIT 20)",
        "group": "nnss",
        "lat": -78.53723456262703,
        "lon": 75.55320063496298,
        "alt_km": 1086.3181296780558,
        "timestamp": "2025-12-26T21:25:53.278910+00:00",
        "meta_object_name": "NNSS 20 (TRANSIT 20)",
        "meta_object_id": "1973-081A",
        "meta_epoch": "2025-12-26T04:24:52.750368",
        "meta_mean_motion": 13.7144138,
        "meta_eccentricity": 0.01560589,
        "meta_inclination": 89.8559,
        "meta_ra_of_asc_node": 254.8528,
        "meta_arg_of_pericenter": 38.4618,
        "meta_mean_anomaly": 322.7546,
        "meta_ephemeris_type": 0,
        "meta_classification_type": "U",
        "meta_norad_cat_id": 6909,
        "meta_element_set_no": 999,
        "meta_rev_at_epoch": 80545,
        "meta_bstar": 0.0002770545,
        "meta_mean_motion_dot": 2.83e-06,
        "meta_mean_motion_ddot": 0,
        "tle_line1": "1 06909U 73081A   25360.18394387  .00000283  00000+0  27705-3 0  9998",
        "tle_line2": "2 06909  89.8559 254.8528 0156058  38.4618 322.7546 13.71441380805452"
      },
      "geometry": {
        "type": "Point",
        "coordinates": [
          75.55320063496298,
          -78.53723456262703
        ]
      }
    },
    {
      "type": "Feature",
      "properties": {
        "norad_id": 10457,
        "name": "TRANSAT",
        "group": "nnss",
        "lat": 52.4316573991848,
        "lon": -102.36317660756464,
        "alt_km": 1052.8987315713875,
        "timestamp": "2025-12-26T21:25:53.278921+00:00",
        "meta_object_name": "TRANSAT",
        "meta_object_id": "1977-106A",
        "meta_epoch": "2025-12-26T11:57:15.611040",
        "meta_mean_motion": 13.48945735,
        "meta_eccentricity": 0.00266157,
        "meta_inclination": 89.6474,
        "meta_ra_of_asc_node": 78.1095,
        "meta_arg_of_pericenter": 150.6072,
        "meta_mean_anomaly": 220.5279,
        "meta_ephemeris_type": 0,
        "meta_classification_type": "U",
        "meta_norad_cat_id": 10457,
        "meta_element_set_no": 999,
        "meta_rev_at_epoch": 36929,
        "meta_bstar": 0.00012243214,
        "meta_mean_motion_dot": 8.7e-07,
        "meta_mean_motion_ddot": 0,
        "tle_line1": "1 10457U 77106A   25360.49809735  .00000087  00000+0  12243-3 0  9998",
        "tle_line2": "2 10457  89.6474  78.1095 0026615 150.6072 220.5279 13.48945735369293"
      },
      "geometry": {
        "type": "Point",
        "coordinates": [
          -102.36317660756464,
          52.4316573991848
        ]
      }
    },
    {
      "type": "Feature",
      "properties": {
        "norad_id": 12458,
        "name": "NOVA 1",
        "group": "nnss",
        "lat": 16.481222523139213,
        "lon": -88.85857485171385,
        "alt_km": 1173.6686219337153,
        "timestamp": "2025-12-26T21:25:53.278932+00:00",
        "meta_object_name": "NOVA 1",
        "meta_object_id": "1981-044A",
        "meta_epoch": "2025-12-26T06:21:41.464800",
        "meta_mean_motion": 13.23279972,
        "meta_eccentricity": 0.00156868,
        "meta_inclination": 89.8525,
        "meta_ra_of_asc_node": 91.194,
        "meta_arg_of_pericenter": 70.7289,
        "meta_mean_anomaly": 342.9728,
        "meta_ephemeris_type": 0,
        "meta_classification_type": "U",
        "meta_norad_cat_id": 12458,
        "meta_element_set_no": 999,
        "meta_rev_at_epoch": 15365,
        "meta_bstar": 0.00011734721,
        "meta_mean_motion_dot": 5.9e-07,
        "meta_mean_motion_ddot": 0,
        "tle_line1": "1 12458U 81044A   25360.26506325  .00000059  00000+0  11735-3 0  9995",
        "tle_line2": "2 12458  89.8525  91.1940 0015686  70.7289 342.9728 13.23279972153652"
      },
      "geometry": {
        "type": "Point",
        "coordinates": [
          -88.85857485171385,
          16.481222523139213
        ]
      }
    }
  ]
}